{"mode":"live-celestrak","source":"CelesTrak","source_url":"https://celestrak.org/NORAD/elements/gp.php?GROUP=active&FORMAT=tle","fetched_at_utc":"2026-06-14T18:43:21Z","catalog":{"catalog_id":"celestrak-active","name":"CelesTrak ACTIVE Live TLE","source":"CelesTrak GP","source_url":"https://celestrak.org/NORAD/elements/gp.php?GROUP=active&FORMAT=tle","fetched_at_utc":"2026-06-14T18:43:21Z","object_count":120,"snapshot":false,"notes":"Live TLE refresh. Use for situational awareness only; no operational covariance is included."},"objects":[{"object_id":"celestrak-26407","name":"NAVSTAR 48 (USA 151)","norad_id":"26407","owner":null,"object_type":"satellite","orbit_class":"MEO","source_catalog":"celestrak-active","tags":["celestrak","active","live-tle"],"tle":{"line1":"1 26407U 00040A   26165.42175328  .00000078  00000+0  00000+0 0  9998","line2":"2 26407  54.8517 215.2721 0121055 302.4619 144.6171  2.00557602189896"}},{"object_id":"celestrak-26410","name":"CLUSTER II-FM7 (SAMBA)","norad_id":"26410","owner":null,"object_type":"satellite","orbit_class":"HEO","source_catalog":"celestrak-active","tags":["celestrak","active","live-tle"],"tle":{"line1":"1 26410U 00041A   26168.13893488  .00013374  00000+0  00000+0 0  9991","line2":"2 26410 149.9162  50.9861 9054057 268.1289 359.6411  0.44866443 20305"}},{"object_id":"celestrak-26464","name":"CLUSTER II-FM8 (TANGO)","norad_id":"26464","owner":null,"object_type":"satellite","orbit_class":"HEO","source_catalog":"celestrak-active","tags":["celestrak","active","live-tle"],"tle":{"line1":"1 26464U 00045B   26163.93604630  .00006612  00000+0  00000+0 0  9993","line2":"2 26464 150.1471  51.3037 9053901 268.2440   3.0100  0.44405929 20299"}},{"object_id":"celestrak-26554","name":"NSS-11","norad_id":"26554","owner":null,"object_type":"satellite","orbit_class":"GEO","source_catalog":"celestrak-active","tags":["celestrak","active","live-tle"],"tle":{"line1":"1 26554U 00059A   26165.55322353  .00000030  00000+0  00000+0 0  9995","line2":"2 26554   2.1198  81.4196 0002795 348.5104 208.0790  1.00270537 41266"}},{"object_id":"celestrak-26575","name":"USA 153","norad_id":"26575","owner":null,"object_type":"satellite","orbit_class":"GEO","source_catalog":"celestrak-active","tags":["celestrak","active","live-tle"],"tle":{"line1":"1 26575U 00065A   26165.50146381 -.00000327  00000+0  00000+0 0  9995","line2":"2 26575  11.6201  35.4446 0003026  46.9343 135.4512  1.00270027 32908"}},{"object_id":"celestrak-26580","name":"AMC-6","norad_id":"26580","owner":null,"object_type":"satellite","orbit_class":"GEO","source_catalog":"celestrak-active","tags":["celestrak","active","live-tle"],"tle":{"line1":"1 26580U 00067A   26165.49519791  .00000095  00000+0  00000+0 0  9991","line2":"2 26580   0.1456  83.0836 0003441  11.9034 211.0422  1.00272414 93866"}},{"object_id":"celestrak-26605","name":"NAVSTAR 49 (USA 154)","norad_id":"26605","owner":null,"object_type":"satellite","orbit_class":"MEO","source_catalog":"celestrak-active","tags":["celestrak","active","live-tle"],"tle":{"line1":"1 26605U 00071A   26164.12396037 -.00000018  00000+0  00000+0 0  9995","line2":"2 26605  55.6235  95.1148 0174228 266.7320 247.9099  2.00565585187434"}},{"object_id":"celestrak-26700","name":"ISS (DESTINY)","norad_id":"26700","owner":null,"object_type":"satellite","orbit_class":"LEO","source_catalog":"celestrak-active","tags":["celestrak","active","live-tle"],"tle":{"line1":"1 26700U 01006B   26165.48029322  .00008443  00000+0  15998-3 0  9995","line2":"2 26700  51.6335 313.4905 0004925 185.2578 174.8360 15.49225904571453"}},{"object_id":"celestrak-26702","name":"ODIN","norad_id":"26702","owner":null,"object_type":"satellite","orbit_class":"LEO","source_catalog":"celestrak-active","tags":["celestrak","active","live-tle"],"tle":{"line1":"1 26702U 01007A   26165.49014215  .00172083  00000+0  11407-2 0  9996","line2":"2 26702  97.3842 206.2610 0006746 145.7949 214.3752 15.74977576388978"}},{"object_id":"celestrak-26715","name":"USA 157 (MILSTAR-2 2)","norad_id":"26715","owner":null,"object_type":"satellite","orbit_class":"GEO","source_catalog":"celestrak-active","tags":["celestrak","active","live-tle"],"tle":{"line1":"1 26715U 01009A   26165.40150147  .00000108  00000+0  00000+0 0  9990","line2":"2 26715  11.5396  19.7820 0039344 177.6123  59.7727  1.00273362 32911"}},{"object_id":"celestrak-26720","name":"BSAT-2A","norad_id":"26720","owner":null,"object_type":"satellite","orbit_class":"GEO","source_catalog":"celestrak-active","tags":["celestrak","active","live-tle"],"tle":{"line1":"1 26720U 01011B   26165.10401507 -.00000137  00000+0  00000+0 0  9998","line2":"2 26720  10.7269  47.5209 0002355 197.2974 342.3882  0.99177022 91945"}},{"object_id":"celestrak-26857","name":"OMNI-M1","norad_id":"26857","owner":null,"object_type":"satellite","orbit_class":"MEO","source_catalog":"celestrak-active","tags":["celestrak","active","live-tle"],"tle":{"line1":"1 26857U 01026A   26165.17069897  .00000005  00000+0  00000+0 0  9997","line2":"2 26857  44.8314 245.9594 0014163  52.8796 307.3086  3.92401509205450"}},{"object_id":"celestrak-26900","name":"INTELSAT 902 (IS-902)","norad_id":"26900","owner":null,"object_type":"satellite","orbit_class":"GEO","source_catalog":"celestrak-active","tags":["celestrak","active","live-tle"],"tle":{"line1":"1 26900U 01039A   26165.17973993 -.00000280  00000+0  00000+0 0  9997","line2":"2 26900   6.1100  71.8210 0004506   7.7564 197.5086  1.00271075 90660"}},{"object_id":"celestrak-26931","name":"PCSAT (NO-44)","norad_id":"26931","owner":null,"object_type":"satellite","orbit_class":"LEO","source_catalog":"celestrak-active","tags":["celestrak","active","live-tle"],"tle":{"line1":"1 26931U 01043C   26165.50518956  .00000097  00000+0  67290-4 0  9991","line2":"2 26931  67.0507 251.2087 0006074 264.5633  95.4776 14.31955246290064"}},{"object_id":"celestrak-26958","name":"PROBA-1","norad_id":"26958","owner":null,"object_type":"satellite","orbit_class":"LEO","source_catalog":"celestrak-active","tags":["celestrak","active","live-tle"],"tle":{"line1":"1 26958U 01049B   26165.48158779  .00003064  00000+0  19933-3 0  9993","line2":"2 26958  97.9599 173.9194 0056205 130.8207 229.7913 15.07489606343215"}},{"object_id":"celestrak-26998","name":"TIMED","norad_id":"26998","owner":null,"object_type":"satellite","orbit_class":"LEO","source_catalog":"celestrak-active","tags":["celestrak","active","live-tle"],"tle":{"line1":"1 26998U 01055B   26165.46578367  .00001069  00000+0  10065-3 0  9991","line2":"2 26998  74.0674 240.4979 0000969 340.8589  19.2559 14.95290054330411"}},{"object_id":"celestrak-27004","name":"MAROC-TUBSAT","norad_id":"27004","owner":null,"object_type":"satellite","orbit_class":"LEO","source_catalog":"celestrak-active","tags":["celestrak","active","live-tle"],"tle":{"line1":"1 27004U 01056D   26165.44503839 -.00000026  00000+0  23482-4 0  9992","line2":"2 27004  99.8080 342.2529 0020240 148.1176 266.0725 13.70262390225811"}},{"object_id":"celestrak-27056","name":"COSMOS 2385","norad_id":"27056","owner":null,"object_type":"satellite","orbit_class":"LEO","source_catalog":"celestrak-active","tags":["celestrak","active","live-tle"],"tle":{"line1":"1 27056U 01058B   26165.52801825  .00000003  00000+0 -41391-4 0  9990","line2":"2 27056  82.5377 221.5472 0005188 231.5701 248.9395 12.60564941125442"}},{"object_id":"celestrak-27057","name":"COSMOS 2386","norad_id":"27057","owner":null,"object_type":"satellite","orbit_class":"LEO","source_catalog":"celestrak-active","tags":["celestrak","active","live-tle"],"tle":{"line1":"1 27057U 01058C   26165.39422604  .00000013  00000+0  13579-4 0  9997","line2":"2 27057  82.5435 215.9532 0001633  95.6811 264.4466 12.61616568126159"}},{"object_id":"celestrak-27168","name":"USA 164 (MILSTAR-2 3)","norad_id":"27168","owner":null,"object_type":"satellite","orbit_class":"GEO","source_catalog":"celestrak-active","tags":["celestrak","active","live-tle"],"tle":{"line1":"1 27168U 02001A   26165.26469980  .00000097  00000+0  00000+0 0  9995","line2":"2 27168  11.1761  21.9254 0098956   8.3094 346.6344  1.00276336 32921"}},{"object_id":"celestrak-27380","name":"INTELSAT 904 (IS-904)","norad_id":"27380","owner":null,"object_type":"satellite","orbit_class":"GEO","source_catalog":"celestrak-active","tags":["celestrak","active","live-tle"],"tle":{"line1":"1 27380U 02007A   26165.11207642 -.00000222  00000+0  00000+0 0  9997","line2":"2 27380   6.9122  69.2210 0006475   4.0178 198.0362  1.00271184 51733"}},{"object_id":"celestrak-27424","name":"AQUA","norad_id":"27424","owner":null,"object_type":"satellite","orbit_class":"LEO","source_catalog":"celestrak-active","tags":["celestrak","active","live-tle"],"tle":{"line1":"1 27424U 02022A   26165.53189381  .00000688  00000+0  14665-3 0  9999","line2":"2 27424  98.4276 134.7616 0001206  53.6987  58.6592 14.62154508282881"}},{"object_id":"celestrak-27426","name":"DIRECTV 5 (TEMPO 1)","norad_id":"27426","owner":null,"object_type":"satellite","orbit_class":"GEO","source_catalog":"celestrak-active","tags":["celestrak","active","live-tle"],"tle":{"line1":"1 27426U 02023A   26165.38169906 -.00000053  00000+0  00000+0 0  9997","line2":"2 27426   4.8706  75.3448 0003222  21.7238 192.9212  1.00271440 88091"}},{"object_id":"celestrak-27438","name":"INTELSAT 905 (IS-905)","norad_id":"27438","owner":null,"object_type":"satellite","orbit_class":"GEO","source_catalog":"celestrak-active","tags":["celestrak","active","live-tle"],"tle":{"line1":"1 27438U 02027A   26165.41207911  .00000096  00000+0  00000+0 0  9993","line2":"2 27438   6.7466  69.8329 0003806  21.0190 182.9942  1.00272319 51334"}}],"total_count":120,"returned_count":120,"filters":{"source":"live","group":"active","limit":120},"warnings":[]}